[{"OBJECT_NAME":"USA 169 (MILSTAR-2 4)","OBJECT_ID":"2003-012A","EPOCH":"2026-03-14T16:50:40.638336","MEAN_MOTION":1.00271091,"ECCENTRICITY":0.01007305,"INCLINATION":12.2064,"RA_OF_ASC_NODE":30.593,"ARG_OF_PERICENTER":4.2093,"MEAN_ANOMALY":182.3136,"EPHEMERIS_TYPE":0,"CLASSIFICATION_TYPE":"U","NORAD_CAT_ID":27711,"ELEMENT_SET_NO":999,"REV_AT_EPOCH":3200,"BSTAR":0,"MEAN_MOTION_DOT":-2.33e-6,"MEAN_MOTION_DDOT":0},{"OBJECT_NAME":"TITAN 4 CENTAUR R/B","OBJECT_ID":"2003-012B","EPOCH":"2026-03-14T01:08:06.952416","MEAN_MOTION":1.00579789,"ECCENTRICITY":0.00247016,"INCLINATION":11.048,"RA_OF_ASC_NODE":23.8512,"ARG_OF_PERICENTER":276.9992,"MEAN_ANOMALY":82.7518,"EPHEMERIS_TYPE":0,"CLASSIFICATION_TYPE":"U","NORAD_CAT_ID":27712,"ELEMENT_SET_NO":999,"REV_AT_EPOCH":2483,"BSTAR":0,"MEAN_MOTION_DOT":1.18e-6,"MEAN_MOTION_DDOT":0},{"OBJECT_NAME":"INSAT-3A","OBJECT_ID":"2003-013A","EPOCH":"2026-03-14T21:04:03.336096","MEAN_MOTION":0.99806025,"ECCENTRICITY":0.00110715,"INCLINATION":8.6027,"RA_OF_ASC_NODE":62.0231,"ARG_OF_PERICENTER":307.7982,"MEAN_ANOMALY":240.6725,"EPHEMERIS_TYPE":0,"CLASSIFICATION_TYPE":"U","NORAD_CAT_ID":27714,"ELEMENT_SET_NO":999,"REV_AT_EPOCH":8378,"BSTAR":0,"MEAN_MOTION_DOT":-3.36e-6,"MEAN_MOTION_DDOT":0},{"OBJECT_NAME":"ARIANE 5 R/B","OBJECT_ID":"2003-013C","EPOCH":"2026-03-14T21:45:06.899040","MEAN_MOTION":2.24036894,"ECCENTRICITY":0.70719977,"INCLINATION":1.4002,"RA_OF_ASC_NODE":272.3017,"ARG_OF_PERICENTER":323.1085,"MEAN_ANOMALY":134.5605,"EPHEMERIS_TYPE":0,"CLASSIFICATION_TYPE":"U","NORAD_CAT_ID":27716,"ELEMENT_SET_NO":999,"REV_AT_EPOCH":18772,"BSTAR":-0.0016542263,"MEAN_MOTION_DOT":-7.2e-7,"MEAN_MOTION_DDOT":0},{"OBJECT_NAME":"ARIANE 5 DEB [SYLDA]","OBJECT_ID":"2003-013D","EPOCH":"2026-03-14T22:00:50.389632","MEAN_MOTION":2.22471168,"ECCENTRICITY":0.70785117,"INCLINATION":1.8759,"RA_OF_ASC_NODE":284.8021,"ARG_OF_PERICENTER":284.3067,"MEAN_ANOMALY":329.0309,"EPHEMERIS_TYPE":0,"CLASSIFICATION_TYPE":"U","NORAD_CAT_ID":27717,"ELEMENT_SET_NO":999,"REV_AT_EPOCH":18642,"BSTAR":-0.0049535629,"MEAN_MOTION_DOT":-2.55e-6,"MEAN_MOTION_DDOT":0},{"OBJECT_NAME":"ASIASAT 4","OBJECT_ID":"2003-014A","EPOCH":"2026-03-14T19:25:26.860224","MEAN_MOTION":1.00270783,"ECCENTRICITY":0.00026614,"INCLINATION":4.4635,"RA_OF_ASC_NODE":76.9264,"ARG_OF_PERICENTER":279.572,"MEAN_ANOMALY":254.8287,"EPHEMERIS_TYPE":0,"CLASSIFICATION_TYPE":"U","NORAD_CAT_ID":27718,"ELEMENT_SET_NO":999,"REV_AT_EPOCH":4435,"BSTAR":0,"MEAN_MOTION_DOT":-2.21e-6,"MEAN_MOTION_DDOT":0},{"OBJECT_NAME":"ARIANE 1 DEB","OBJECT_ID":"1979-104S","EPOCH":"2026-03-13T01:47:18.985920","MEAN_MOTION":1.93135562,"ECCENTRICITY":0.73112011,"INCLINATION":16.5076,"RA_OF_ASC_NODE":29.2439,"ARG_OF_PERICENTER":141.6893,"MEAN_ANOMALY":304.6648,"EPHEMERIS_TYPE":0,"CLASSIFICATION_TYPE":"U","NORAD_CAT_ID":27732,"ELEMENT_SET_NO":999,"REV_AT_EPOCH":8418,"BSTAR":0.0099887235,"MEAN_MOTION_DOT":-2.11e-6,"MEAN_MOTION_DDOT":0},{"OBJECT_NAME":"COSMOS 2397","OBJECT_ID":"2003-015A","EPOCH":"2026-03-14T09:40:47.203968","MEAN_MOTION":1.00488446,"ECCENTRICITY":0.00432235,"INCLINATION":12.5965,"RA_OF_ASC_NODE":20.7511,"ARG_OF_PERICENTER":6.2393,"MEAN_ANOMALY":176.5834,"EPHEMERIS_TYPE":0,"CLASSIFICATION_TYPE":"U","NORAD_CAT_ID":27775,"ELEMENT_SET_NO":999,"REV_AT_EPOCH":8396,"BSTAR":0,"MEAN_MOTION_DOT":-8.0e-7,"MEAN_MOTION_DDOT":0},{"OBJECT_NAME":"SL-12 R/B(2)","OBJECT_ID":"2003-015F","EPOCH":"2026-03-14T17:29:08.970720","MEAN_MOTION":1.00282014,"ECCENTRICITY":0.0010093,"INCLINATION":12.6449,"RA_OF_ASC_NODE":21.0803,"ARG_OF_PERICENTER":32.1238,"MEAN_ANOMALY":152.8994,"EPHEMERIS_TYPE":0,"CLASSIFICATION_TYPE":"U","NORAD_CAT_ID":27780,"ELEMENT_SET_NO":999,"REV_AT_EPOCH":8355,"BSTAR":0,"MEAN_MOTION_DOT":-3.36e-6,"MEAN_MOTION_DDOT":0},{"OBJECT_NAME":"ATLAS AGENA R/B","OBJECT_ID":"1968-063B","EPOCH":"2026-03-14T19:50:11.823936","MEAN_MOTION":1.01772726,"ECCENTRICITY":0.10162929,"INCLINATION":4.6249,"RA_OF_ASC_NODE":266.9049,"ARG_OF_PERICENTER":263.9628,"MEAN_ANOMALY":84.0565,"EPHEMERIS_TYPE":0,"CLASSIFICATION_TYPE":"U","NORAD_CAT_ID":27785,"ELEMENT_SET_NO":999,"REV_AT_EPOCH":2542,"BSTAR":0,"MEAN_MOTION_DOT":-1.03e-6,"MEAN_MOTION_DDOT":0},{"OBJECT_NAME":"ATLAS AGENA R/B","OBJECT_ID":"1969-036B","EPOCH":"2026-03-14T16:00:51.443712","MEAN_MOTION":1.0385287,"ECCENTRICITY":0.1061679,"INCLINATION":14.2801,"RA_OF_ASC_NODE":27.4808,"ARG_OF_PERICENTER":246.7797,"MEAN_ANOMALY":101.7577,"EPHEMERIS_TYPE":0,"CLASSIFICATION_TYPE":"U","NORAD_CAT_ID":27786,"ELEMENT_SET_NO":999,"REV_AT_EPOCH":2583,"BSTAR":0,"MEAN_MOTION_DOT":-8.8e-7,"MEAN_MOTION_DDOT":0},{"OBJECT_NAME":"ATLAS AGENA R/B","OBJECT_ID":"1970-069B","EPOCH":"2026-03-13T17:47:46.337856","MEAN_MOTION":1.01709567,"ECCENTRICITY":0.11998748,"INCLINATION":11.5236,"RA_OF_ASC_NODE":137.4236,"ARG_OF_PERICENTER":186.8724,"MEAN_ANOMALY":171.3675,"EPHEMERIS_TYPE":0,"CLASSIFICATION_TYPE":"U","NORAD_CAT_ID":27787,"ELEMENT_SET_NO":999,"REV_AT_EPOCH":2605,"BSTAR":0,"MEAN_MOTION_DOT":-1.43e-6,"MEAN_MOTION_DDOT":0},{"OBJECT_NAME":"COSMOS 1261 DEB","OBJECT_ID":"1981-031H","EPOCH":"2026-03-13T18:21:15.706368","MEAN_MOTION":2.01770768,"ECCENTRICITY":0.69487437,"INCLINATION":65.4736,"RA_OF_ASC_NODE":5.0742,"ARG_OF_PERICENTER":18.1316,"MEAN_ANOMALY":357.4519,"EPHEMERIS_TYPE":0,"CLASSIFICATION_TYPE":"U","NORAD_CAT_ID":27796,"ELEMENT_SET_NO":999,"REV_AT_EPOCH":18394,"BSTAR":0,"MEAN_MOTION_DOT":-1.176e-5,"MEAN_MOTION_DDOT":0},{"OBJECT_NAME":"COSMOS 1285 DEB","OBJECT_ID":"1981-071P","EPOCH":"2026-03-14T10:14:10.638528","MEAN_MOTION":1.97634124,"ECCENTRICITY":0.71202307,"INCLINATION":64.3987,"RA_OF_ASC_NODE":78.3038,"ARG_OF_PERICENTER":35.3327,"MEAN_ANOMALY":355.6976,"EPHEMERIS_TYPE":0,"CLASSIFICATION_TYPE":"U","NORAD_CAT_ID":27800,"ELEMENT_SET_NO":999,"REV_AT_EPOCH":19153,"BSTAR":0,"MEAN_MOTION_DOT":-5.48e-6,"MEAN_MOTION_DDOT":0},{"OBJECT_NAME":"COSMOS 1285 DEB","OBJECT_ID":"1981-071Q","EPOCH":"2026-03-13T00:18:59.604768","MEAN_MOTION":1.97962037,"ECCENTRICITY":0.72343784,"INCLINATION":64.056,"RA_OF_ASC_NODE":50.4659,"ARG_OF_PERICENTER":38.1927,"MEAN_ANOMALY":355.4307,"EPHEMERIS_TYPE":0,"CLASSIFICATION_TYPE":"U","NORAD_CAT_ID":27801,"ELEMENT_SET_NO":999,"REV_AT_EPOCH":18166,"BSTAR":0,"MEAN_MOTION_DOT":1.196e-5,"MEAN_MOTION_DDOT":0},{"OBJECT_NAME":"GSAT-2","OBJECT_ID":"2003-018A","EPOCH":"2026-03-14T20:52:04.483776","MEAN_MOTION":0.99839858,"ECCENTRICITY":0.00117513,"INCLINATION":10.9938,"RA_OF_ASC_NODE":42.4961,"ARG_OF_PERICENTER":336.3159,"MEAN_ANOMALY":185.9251,"EPHEMERIS_TYPE":0,"CLASSIFICATION_TYPE":"U","NORAD_CAT_ID":27807,"ELEMENT_SET_NO":999,"REV_AT_EPOCH":8349,"BSTAR":0,"MEAN_MOTION_DOT":-4.2e-7,"MEAN_MOTION_DDOT":0},{"OBJECT_NAME":"HELLAS-SAT 2","OBJECT_ID":"2003-020A","EPOCH":"2026-03-14T18:43:50.309760","MEAN_MOTION":1.00272184,"ECCENTRICITY":0.00071284,"INCLINATION":7.1191,"RA_OF_ASC_NODE":69.0033,"ARG_OF_PERICENTER":251.0248,"MEAN_ANOMALY":123.3113,"EPHEMERIS_TYPE":0,"CLASSIFICATION_TYPE":"U","NORAD_CAT_ID":27811,"ELEMENT_SET_NO":999,"REV_AT_EPOCH":4190,"BSTAR":0,"MEAN_MOTION_DOT":-8.1e-7,"MEAN_MOTION_DDOT":0}]
