USA 169 (MILSTAR-2 4)   
1 27711U 03012A   26073.70185924 -.00000233  00000+0  00000+0 0  9995
2 27711  12.2064  30.5930 0100730   4.2093 182.3136  1.00271091 32004
TITAN 4 CENTAUR R/B     
1 27712U 03012B   26073.04730269  .00000118  00000+0  00000+0 0  9992
2 27712  11.0480  23.8512 0024701 276.9992  82.7518  1.00579789 24838
INSAT-3A                
1 27714U 03013A   26073.87781639 -.00000336  00000+0  00000+0 0  9996
2 27714   8.6027  62.0231 0011071 307.7982 240.6725  0.99806025 83787
ARIANE 5 R/B            
1 27716U 03013C   26073.90632985 -.00000072  00000+0 -16542-2 0  9990
2 27716   1.4002 272.3017 7071997 323.1085 134.5605  2.24036894187723
ARIANE 5 DEB [SYLDA]    
1 27717U 03013D   26073.91724988 -.00000255  00000+0 -49536-2 0  9999
2 27717   1.8759 284.8021 7078511 284.3067 329.0309  2.22471168186420
ASIASAT 4               
1 27718U 03014A   26073.80933866 -.00000221  00000+0  00000+0 0  9998
2 27718   4.4635  76.9264 0002661 279.5720 254.8287  1.00270783 44350
ARIANE 1 DEB            
1 27732U 79104S   26072.07452530 -.00000211  00000+0  99887-2 0  9992
2 27732  16.5076  29.2439 7311201 141.6893 304.6648  1.93135562 84181
COSMOS 2397             
1 27775U 03015A   26073.40332412 -.00000080  00000+0  00000+0 0  9991
2 27775  12.5965  20.7511 0043223   6.2393 176.5834  1.00488446 83966
SL-12 R/B(2)            
1 27780U 03015F   26073.72857605 -.00000336  00000+0  00000+0 0  9992
2 27780  12.6449  21.0803 0010093  32.1238 152.8994  1.00282014 83555
ATLAS AGENA R/B         
1 27785U 68063B   26073.82652574 -.00000103  00000+0  00000+0 0  9992
2 27785   4.6249 266.9049 1016292 263.9628  84.0565  1.01772726 25423
ATLAS AGENA R/B         
1 27786U 69036B   26073.66726208 -.00000088  00000+0  00000+0 0  9994
2 27786  14.2801  27.4808 1061679 246.7797 101.7577  1.03852870 25839
ATLAS AGENA R/B         
1 27787U 70069B   26072.74150854 -.00000143  00000+0  00000+0 0  9991
2 27787  11.5236 137.4236 1199874 186.8724 171.3675  1.01709567 26051
COSMOS 1261 DEB         
1 27796U 81031H   26072.76476512 -.00001176  00000+0  00000+0 0  9993
2 27796  65.4736   5.0742 6948743  18.1316 357.4519  2.01770768183940
COSMOS 1285 DEB         
1 27800U 81071P   26073.42651202 -.00000548  00000+0  00000+0 0  9990
2 27800  64.3987  78.3038 7120230  35.3327 355.6976  1.97634124191530
COSMOS 1285 DEB         
1 27801U 81071Q   26072.01318987  .00001196  00000+0  00000+0 0  9994
2 27801  64.0560  50.4659 7234378  38.1927 355.4307  1.97962037181667
GSAT-2                  
1 27807U 03018A   26073.86949634 -.00000042  00000+0  00000+0 0  9998
2 27807  10.9938  42.4961 0011751 336.3159 185.9251  0.99839858 83491
HELLAS-SAT 2            
1 27811U 03020A   26073.78044340 -.00000081  00000+0  00000+0 0  9990
2 27811   7.1191  69.0033 0007128 251.0248 123.3113  1.00272184 41904
